SAUDISAT 5A             
1 43831U 18102A   26180.54106486  .00005384  00000+0  19840-3 0  9996
2 43831  97.3066 241.8841 0011284  91.8054 268.4478 15.28172906417566
SAUDISAT 5B             
1 43833U 18102C   26180.49238943  .00005196  00000+0  19009-3 0  9994
2 43833  97.3175 244.9285 0011992  93.6209 266.6403 15.28422864417674
GAOFEN-10R              
1 44622U 19066A   26180.50083711  .00001183  00000+0  15217-3 0  9993
2 44622  98.0503 134.1699 0007177  93.2285 266.9749 14.83026236364202
CARTOSAT-3              
1 44804U 19081A   26180.47378663  .00003594  00000+0  17355-3 0  9994
2 44804  97.4306 242.1434 0013444 109.1904 251.0786 15.19222813365334
GAOFEN-12 01            
1 44819U 19082A   26180.51585422  .00000405  00000+0  59631-4 0  9991
2 44819  97.8101 186.5699 0001798  57.4061 302.7324 14.80468343355911
CSG-1                   
1 44873U 19092A   26180.54077984  .00000412  00000+0  58308-4 0  9992
2 44873  97.8891   3.9645 0001401  90.1610 269.9764 14.82154401353307
NEMO-HD                 
1 46277U 20061F   26180.50267527  .00010329  00000+0  22210-3 0  9990
2 46277  97.1917 242.3323 0001653  74.7555 285.3877 15.44837605323886
SENTINEL-6A             
1 46984U 20086A   26179.95302575 -.00000083  00000+0 -96528-4 0  9994
2 46984  66.0410 110.6152 0007837 269.9813  90.0304 12.80929913261839
CAS500-1                
1 47932U 21022A   26180.50384778  .00005851  00000+0  27304-3 0  9998
2 47932  97.3893  75.5078 0003722 233.9798 126.1092 15.20210830292638
GAOFEN-12 02            
1 48079U 21026A   26180.52823736  .00000365  00000+0  54834-4 0  9993
2 48079  97.9924 178.6585 0004640 176.9778 183.1463 14.80305292283585
PLEIADES NEO 3          
1 48268U 21034A   26180.54405937 -.00000006  00000+0  58044-5 0  9994
2 48268  97.8941 255.1329 0001349  88.6219 271.5149 14.81671603279482
PLEIADES NEO 4          
1 49070U 21073E   26180.51027781  .00001756  00000+0  22969-3 0  9990
2 49070  97.8940 255.0960 0001393  89.7301 270.4072 14.81677065263198
LANDSAT 9               
1 49260U 21088A   26180.21377720  .00000339  00000+0  85303-4 0  9993
2 49260  98.2278 250.2455 0001236  85.6709 274.4631 14.57105098252757
CSG-2                   
1 51444U 22008A   26180.50701449 -.00000298  00000+0 -30913-4 0  9997
2 51444  97.8882   3.9259 0001530  85.5406 274.5982 14.82150850238416
GAOFEN-12 03            
1 52912U 22069A   26180.56032226  .00000145  00000+0  25770-4 0  9995
2 52912  97.8273  68.1184 0002382  91.2295 268.9190 14.80050804216440
SWOT                    
1 54754U 22173A   26180.56420294  .00000055  00000+0  38845-4 0  9990
2 54754  77.6101  18.6008 0000304  84.6958 275.4229 14.00171030180882
GAOFEN-12 04            
1 57654U 23123A   26180.50923685  .00000987  00000+0  13811-3 0  9993
2 57654  97.9115  98.3470 0003959  81.6522 278.5139 14.79748931154459
PARS 1                  
1 59065U 24039Q   26180.54882433  .00010842  00000+0  22379-3 0  9997
2 59065  97.4822 161.8599 0011337  75.2170 285.0334 15.45977991130551
RESURS-P 4              
1 59371U 24061A   26180.54135064  .00002945  00000+0  97187-4 0  9998
2 59371  97.2756 128.2255 0002884 112.0008 248.1540 15.32199475125651
LEGION 1                
1 59625U 24081A   26180.49822190  .00003701  00000+0  19198-3 0  9995
2 59625  97.5021 258.2239 0008335 333.8607  26.2204 15.16747903119407
LEGION 2                
1 59626U 24081B   26180.46240271  .00003315  00000+0  17236-3 0  9999
2 59626  97.5021 258.2856 0009952 296.3828  63.6383 15.16725599119407
ALOS-4 (DAICHI-4)       
1 60182U 24123A   26180.53533045  .00001416  00000+0  19642-3 0  9990
2 60182  97.9219 277.5342 0001610  98.7625 261.3769 14.79464709107701
LEGION 3                
1 60452U 24146A   26180.45268477  .00003951  00000+0  21530-3 0  9995
2 60452  45.0022 324.7713 0008760 239.8073 120.1939 15.16041747103883
LEGION 4                
1 60453U 24146B   26179.92859921  .00004147  00000+0  22472-3 0  9990
2 60453  45.0022  59.4913 0012395  12.8607 347.2586 15.16120945102651
SENTINEL-2C             
1 60989U 24157A   26179.92078457  .00000098  00000+0  54033-4 0  9993
2 60989  98.5692 254.5369 0000913  90.8997 269.2290 14.30820822 94667
IONOSFERA-M 1           
1 61735U 24199A   26180.57114640  .00000056  00000+0  44772-4 0  9990
2 61735  98.7157  53.6118 0002172  93.8502 266.2925 14.22756486129463
IONOSFERA-M 2           
1 61736U 24199B   26180.53508594  .00000056  00000+0  44437-4 0  9990
2 61736  98.7156  53.4866 0000520  41.7080 318.4137 14.22759760132589
PRSC-EO1                
1 62725U 25012A   26180.32319951  .00006199  00000+0  31012-3 0  9996
2 62725  97.4228 252.5458 0005824 202.3113 157.7868 15.17758644 80039
BIOMASS                 
1 63772U 25090A   26176.41992450  .00000661  00000+0  12495-3 0  9993
2 63772  98.0741   3.6181 0001429  94.8977 265.2391 14.67536962 61896
GOSAT-GW (IBUKI GW)     
1 64694U 25141A   26180.53099356  .00000621  00000+0  11794-3 0  9992
2 64694  98.0569 117.6476 0001429  83.6410 276.4958 14.67552757 53657
IONOSFERA-M 3           
1 64876U 25155A   26180.49345366  .00000055  00000+0  44575-4 0  9994
2 64876  98.6030 142.0890 0001667 136.1932 223.9378 14.21488505 48158
