OBJECT_NAME,OBJECT_ID,EPOCH,MEAN_MOTION,ECCENTRICITY,INCLINATION,RA_OF_ASC_NODE,ARG_OF_PERICENTER,MEAN_ANOMALY,EPHEMERIS_TYPE,CLASSIFICATION_TYPE,NORAD_CAT_ID,ELEMENT_SET_NO,REV_AT_EPOCH,BSTAR,MEAN_MOTION_DOT,MEAN_MOTION_DDOT
SAUDISAT 5A,2018-102A,2026-06-29T12:59:08.003904,15.28172906,.0011284,97.3066,241.8841,91.8054,268.4478,0,U,43831,999,41756,.1984E-3,.5384E-4,0
SAUDISAT 5B,2018-102C,2026-06-29T11:49:02.446752,15.28422864,.0011992,97.3175,244.9285,93.6209,266.6403,0,U,43833,999,41767,.19009E-3,.5196E-4,0
GAOFEN-10R,2019-066A,2026-06-29T12:01:12.326304,14.83026236,.0007177,98.0503,134.1699,93.2285,266.9749,0,U,44622,999,36420,.15217E-3,.1183E-4,0
CARTOSAT-3,2019-081A,2026-06-29T11:22:15.164832,15.19222813,.0013444,97.4306,242.1434,109.1904,251.0786,0,U,44804,999,36533,.17355E-3,.3594E-4,0
GAOFEN-12 01,2019-082A,2026-06-29T12:22:49.804608,14.80468343,.0001798,97.8101,186.5699,57.4061,302.7324,0,U,44819,999,35591,.59631E-4,.405E-5,0
CSG-1,2019-092A,2026-06-29T12:58:43.378176,14.82154401,.0001401,97.8891,3.9645,90.1610,269.9764,0,U,44873,999,35330,.58308E-4,.412E-5,0
NEMO-HD,2020-061F,2026-06-29T12:03:51.143328,15.44837605,.0001653,97.1917,242.3323,74.7555,285.3877,0,U,46277,999,32388,.2221E-3,.10329E-3,0
SENTINEL-6A,2020-086A,2026-06-28T22:52:21.424800,12.80929913,.00078373,66.0410,110.6152,269.9813,90.0304,0,U,46984,999,26183,-.96528022E-4,-.83E-6,0
CAS500-1,2021-022A,2026-06-29T12:05:32.448192,15.20210830,.0003722,97.3893,75.5078,233.9798,126.1092,0,U,47932,999,29263,.27304E-3,.5851E-4,0
GAOFEN-12 02,2021-026A,2026-06-29T12:40:39.707904,14.80305292,.000464,97.9924,178.6585,176.9778,183.1463,0,U,48079,999,28358,.54834E-4,.365E-5,0
PLEIADES NEO 3,2021-034A,2026-06-29T13:03:26.729568,14.81671603,.0001349,97.8941,255.1329,88.6219,271.5149,0,U,48268,999,27948,.58044E-5,-.6E-7,0
PLEIADES NEO 4,2021-073E,2026-06-29T12:14:48.002784,14.81677065,.0001393,97.8940,255.0960,89.7301,270.4072,0,U,49070,999,26319,.22969E-3,.1756E-4,0
LANDSAT 9,2021-088A,2026-06-29T05:07:50.350080,14.57105098,.0001236,98.2278,250.2455,85.6709,274.4631,0,U,49260,999,25275,.85303E-4,.339E-5,0
CSG-2,2022-008A,2026-06-29T12:10:06.051936,14.82150850,.000153,97.8882,3.9259,85.5406,274.5982,0,U,51444,999,23841,-.30913E-4,-.298E-5,0
GAOFEN-12 03,2022-069A,2026-06-29T13:26:51.843264,14.80050804,.0002382,97.8273,68.1184,91.2295,268.9190,0,U,52912,999,21644,.2577E-4,.145E-5,0
SWOT,2022-173A,2026-06-29T13:32:27.134016,14.00171030,.0000304,77.6101,18.6008,84.6958,275.4229,0,U,54754,999,18088,.38845E-4,.55E-6,0
GAOFEN-12 04,2023-123A,2026-06-29T12:13:18.063840,14.79748931,.0003959,97.9115,98.3470,81.6522,278.5139,0,U,57654,999,15445,.13811E-3,.987E-5,0
PARS 1,2024-039Q,2026-06-29T13:10:18.422112,15.45977991,.0011337,97.4822,161.8599,75.2170,285.0334,0,U,59065,999,13055,.22379E-3,.10842E-3,0
RESURS-P 4,2024-061A,2026-06-29T12:59:32.695296,15.32199475,.0002884,97.2756,128.2255,112.0008,248.1540,0,U,59371,999,12565,.97187E-4,.2945E-4,0
LEGION 1,2024-081A,2026-06-29T11:57:26.372160,15.16747903,.0008335,97.5021,258.2239,333.8607,26.2204,0,U,59625,999,11940,.19198E-3,.3701E-4,0
LEGION 2,2024-081B,2026-06-29T11:05:51.594144,15.16725599,.0009952,97.5021,258.2856,296.3828,63.6383,0,U,59626,999,11940,.17236E-3,.3315E-4,0
ALOS-4 (DAICHI-4),2024-123A,2026-06-29T12:50:52.550880,14.79464709,.000161,97.9219,277.5342,98.7625,261.3769,0,U,60182,999,10770,.19642E-3,.1416E-4,0
LEGION 3,2024-146A,2026-06-29T10:51:51.964128,15.16041747,.000876,45.0022,324.7713,239.8073,120.1939,0,U,60452,999,10388,.2153E-3,.3951E-4,0
LEGION 4,2024-146B,2026-06-28T22:17:10.971744,15.16120945,.00123951,45.0022,59.4913,12.8607,347.2586,0,U,60453,999,10265,.2247209E-3,.4147E-4,0
SENTINEL-2C,2024-157A,2026-06-28T22:05:55.786848,14.30820822,.00009133,98.5692,254.5369,90.8997,269.2290,0,U,60989,999,9466,.54032552E-4,.98E-6,0
IONOSFERA-M 1,2024-199A,2026-06-29T13:42:27.048960,14.22756486,.0002172,98.7157,53.6118,93.8502,266.2925,0,U,61735,999,12946,.44772E-4,.56E-6,0
IONOSFERA-M 2,2024-199B,2026-06-29T12:50:31.425216,14.22759760,.000052,98.7156,53.4866,41.7080,318.4137,0,U,61736,999,13258,.44437E-4,.56E-6,0
PRSC-EO1,2025-012A,2026-06-29T07:45:24.437664,15.17758644,.0005824,97.4228,252.5458,202.3113,157.7868,0,U,62725,999,8003,.31012E-3,.6199E-4,0
BIOMASS,2025-090A,2026-06-25T10:04:41.476800,14.67536962,.0001429,98.0741,3.6181,94.8977,265.2391,0,U,63772,999,6189,.12495E-3,.661E-5,0
GOSAT-GW (IBUKI GW),2025-141A,2026-06-29T12:44:37.843584,14.67552757,.0001429,98.0569,117.6476,83.6410,276.4958,0,U,64694,999,5365,.11794E-3,.621E-5,0
IONOSFERA-M 3,2025-155A,2026-06-29T11:50:34.396224,14.21488505,.0001667,98.6030,142.0890,136.1932,223.9378,0,U,64876,999,4815,.44575E-4,.55E-6,0
